CTC1_L_00101016-03
1 58737U 25711SA  26037.47802083  .00000000  00000+0  00000-0 0  9995
2 58737  85.0000 180.0000 0000000   0.0000   0.0000 14.42576027    13
CTC1_L_00101016-04
1 58738U 24092MA  26037.47802083  .00000000  00000+0  00000-0 0  9997
2 58738  85.0000 180.0000 0000000   0.0000  90.0000 14.42576027    13
CTC1_L_00101017-01
1 58739U 26004XM  26037.47802083  .00000000  00000+0  00000-0 0  9993
2 58739  85.0000 192.0000 0000000   0.0000 192.0000 14.42576027    10
CTC1_L_00101017-02
1 58740U 25821PM  26037.47802083  .00000000  00000+0  00000-0 0  9991
2 58740  85.0000 192.0000 0000000   0.0000 282.0000 14.42576027    12
CTC1_L_00101017-03
1 58741U 25806CU  26037.47802083  .00000000  00000+0  00000-0 0  9995
2 58741  85.0000 192.0000 0000000   0.0000  12.0000 14.42576027    14
CTC1_L_00101017-04
1 58742U 24728MN  26037.47802083  .00000000  00000+0  00000-0 0  9998
2 58742  85.0000 192.0000 0000000   0.0000 102.0000 14.42576027    15
CTC1_L_00101018-01
1 58743U 22763JE  26037.47802083  .00000000  00000+0  00000-0 0  9996
2 58743  85.0000 204.0000 0000000   0.0000 204.0000 14.42576027    13
CTC1_L_00101018-02
1 58744U 25692KN  26037.47802083  .00000000  00000+0  00000-0 0  9991
2 58744  85.0000 204.0000 0000000   0.0000 294.0000 14.42576027    13
CTC1_L_00101018-03
1 58745U 26654GA  26037.47802083  .00000000  00000+0  00000-0 0  9991
2 58745  85.0000 204.0000 0000000   0.0000  24.0000 14.42576027    15
CTC1_L_00101018-04
1 58746U 23930RT  26037.47802083  .00000000  00000+0  00000-0 0  9996
2 58746  85.0000 204.0000 0000000   0.0000 114.0000 14.42576027    16
CTC1_L_00101019-01
1 58747U 25619JH  26037.47802083  .00000000  00000+0  00000-0 0  9993
2 58747  85.0000 216.0000 0000000   0.0000 216.0000 14.42576027    13
CTC1_L_00101019-02
1 58748U 24366JS  26037.47802083  .00000000  00000+0  00000-0 0  9992
2 58748  85.0000 216.0000 0000000   0.0000 306.0000 14.42576027    14
CTC1_L_00101019-03
1 58749U 23200GK  26037.47802083  .00000000  00000+0  00000-0 0  9999
2 58749  85.0000 216.0000 0000000   0.0000  36.0000 14.42576027    15
CTC1_L_00101019-04
1 58750U 25429TG  26037.47802083  .00000000  00000+0  00000-0 0  9996
2 58750  85.0000 216.0000 0000000   0.0000 126.0000 14.42576027    17
CTC1_L_00101020-01
1 58751U 25455ZY  26037.47802083  .00000000  00000+0  00000-0 0  9996
2 58751  85.0000 228.0000 0000000   0.0000 228.0000 14.42576027    14
CTC1_L_00101020-02
1 58752U 26832CV  26037.47802083  .00000000  00000+0  00000-0 0  9997
2 58752  85.0000 228.0000 0000000   0.0000 318.0000 14.42576027    15
CTC1_L_00101020-03
1 58753U 26108IF  26037.47802083  .00000000  00000+0  00000-0 0  9994
2 58753  85.0000 228.0000 0000000   0.0000  48.0000 14.42576027    16
CTC1_L_00101020-04
1 58754U 25987BQ  26037.47802083  .00000000  00000+0  00000-0 0  9999
2 58754  85.0000 228.0000 0000000   0.0000 138.0000 14.42576027    17
CTC1_L_00101021-01
1 58755U 25450TX  26037.47802083  .00000000  00000+0  00000-0 0  9995
2 58755  85.0000 240.0000 0000000   0.0000 240.0000 14.42576027    16
CTC1_L_00101021-02
1 58756U 23964LP  26037.47802083  .00000000  00000+0  00000-0 0  9994
2 58756  85.0000 240.0000 0000000   0.0000 330.0000 14.42576027    17
CTC1_L_00101021-03
1 58757U 24843II  26037.47802083  .00000000  00000+0  00000-0 0  9992
2 58757  85.0000 240.0000 0000000   0.0000  60.0000 14.42576027    18
CTC1_L_00101021-04
1 58758U 26309ZF  26037.47802083  .00000000  00000+0  00000-0 0  9992
2 58758  85.0000 240.0000 0000000   0.0000 150.0000 14.42576027    19
CTC1_L_00101022-01
1 58759U 25226ZE  26037.47802083  .00000000  00000+0  00000-0 0  9990
2 58759  85.0000 252.0000 0000000   0.0000 252.0000 14.42576027    16
CTC1_L_00101022-02
1 58760U 26357TG  26037.47802083  .00000000  00000+0  00000-0 0  9998
2 58760  85.0000 252.0000 0000000   0.0000 342.0000 14.42576027    18
CTC1_L_00101022-03
1 58761U 24552CY  26037.47802083  .00000000  00000+0  00000-0 0  9994
2 58761  85.0000 252.0000 0000000   0.0000  72.0000 14.42576027    19
CTC1_L_00101022-04
1 58762U 25454CT  26037.47802083  .00000000  00000+0  00000-0 0  9997
2 58762  85.0000 252.0000 0000000   0.0000 162.0000 14.42576027    10
CTC1_L_00101023-01
1 58763U 25725UO  26037.47802083  .00000000  00000+0  00000-0 0  9999
2 58763  85.0000 264.0000 0000000   0.0000 264.0000 14.42576027    17
CTC1_L_00101023-02
1 58764U 23199VF  26037.47802083  .00000000  00000+0  00000-0 0  9993
2 58764  85.0000 264.0000 0000000   0.0000 354.0000 14.42576027    18
CTC1_L_00101023-03
1 58765U 23943RN  26037.47802083  .00000000  00000+0  00000-0 0  9991
2 58765  85.0000 264.0000 0000000   0.0000  84.0000 14.42576027    19
CTC1_L_00101023-04
1 58766U 24947ZZ  26037.47802083  .00000000  00000+0  00000-0 0  9997
2 58766  85.0000 264.0000 0000000   0.0000 174.0000 14.42576027    10
CTC1_L_00101024-01
1 58767U 24681IM  26037.47802083  .00000000  00000+0  00000-0 0  9993
2 58767  85.0000 276.0000 0000000   0.0000 276.0000 14.42576027    17
CTC1_L_00101024-02
1 58768U 23045NT  26037.47802083  .00000000  00000+0  00000-0 0  9997
2 58768  85.0000 276.0000 0000000   0.0000   6.0000 14.42576027    19
CTC1_L_00101024-03
1 58769U 23969DI  26037.47802083  .00000000  00000+0  00000-0 0  9993
2 58769  85.0000 276.0000 0000000   0.0000  96.0000 14.42576027    19
CTC1_L_00101024-04
1 58770U 24732VB  26037.47802083  .00000000  00000+0  00000-0 0  9994
2 58770  85.0000 276.0000 0000000   0.0000 186.0000 14.42576027    11
CTC1_L_00101025-01
1 58771U 26960PE  26037.47802083  .00000000  00000+0  00000-0 0  9990
2 58771  85.0000 288.0000 0000000   0.0000 288.0000 14.42576027    18
CTC1_L_00101025-02
1 58772U 23856NO  26037.47802083  .00000000  00000+0  00000-0 0  9992
2 58772  85.0000 288.0000 0000000   0.0000  18.0000 14.42576027    10
CTC1_L_00101025-03
1 58773U 24910IE  26037.47802083  .00000000  00000+0  00000-0 0  9995
2 58773  85.0000 288.0000 0000000   0.0000 108.0000 14.42576027    11
CTC1_L_00101025-04
1 58774U 26348WL  26037.47802083  .00000000  00000+0  00000-0 0  9993
2 58774  85.0000 288.0000 0000000   0.0000 198.0000 14.42576027    11
CTC1_L_00101026-01
1 58775U 25809IK  26037.47802083  .00000000  00000+0  00000-0 0  9995
2 58775  85.0000 300.0000 0000000   0.0000 300.0000 14.42576027    12
CTC1_L_00101026-02
1 58776U 22892IS  26037.47802083  .00000000  00000+0  00000-0 0  9995
2 58776  85.0000 300.0000 0000000   0.0000  30.0000 14.42576027    13
CTC1_L_00101026-03
1 58777U 23125RW  26037.47802083  .00000000  00000+0  00000-0 0  9996
2 58777  85.0000 300.0000 0000000   0.0000 120.0000 14.42576027    14
CTC1_L_00101026-04
1 58778U 23397FT  26037.47802083  .00000000  00000+0  00000-0 0  9998
2 58778  85.0000 300.0000 0000000   0.0000 210.0000 14.42576027    15
CTC1_L_00101027-01
1 58779U 24376CY  26037.47802083  .00000000  00000+0  00000-0 0  9997
2 58779  85.0000 312.0000 0000000   0.0000 312.0000 14.42576027    12
CTC1_L_00101027-02
1 58780U 25028VY  26037.47802083  .00000000  00000+0  00000-0 0  9994
2 58780  85.0000 312.0000 0000000   0.0000  42.0000 14.42576027    14
CTC1_L_00101027-03
1 58781U 25156TE  26037.47802083  .00000000  00000+0  00000-0 0  9997
2 58781  85.0000 312.0000 0000000   0.0000 132.0000 14.42576027    15
CTC1_L_00101027-04
1 58782U 26899XE  26037.47802083  .00000000  00000+0  00000-0 0  9993
2 58782  85.0000 312.0000 0000000   0.0000 222.0000 14.42576027    16
CTC1_L_00101028-01
1 58783U 23544WX  26037.47802083  .00000000  00000+0  00000-0 0  9998
2 58783  85.0000 324.0000 0000000   0.0000 324.0000 14.42576027    13
CTC1_L_00101028-02
1 58784U 22957YL  26037.47802083  .00000000  00000+0  00000-0 0  9996
2 58784  85.0000 324.0000 0000000   0.0000  54.0000 14.42576027    14
CTC1_L_00101028-03
1 58785U 26056ME  26037.47802083  .00000000  00000+0  00000-0 0  9991
2 58785  85.0000 324.0000 0000000   0.0000 144.0000 14.42576027    15
CTC1_L_00101028-04
1 58786U 24033D   26037.47802083  .00000000  00000+0  00000-0 0  9995
2 58786  85.0000 324.0000 0000000   0.0000 234.0000 14.42576027    16
CTC1_L_00101029-01
1 58787U 25163YI  26037.47802083  .00000000  00000+0  00000-0 0  9991
2 58787  85.0000 336.0000 0000000   0.0000 336.0000 14.42576027    13
CTC1_L_00101029-02
1 58788U 26820ZU  26037.47802083  .00000000  00000+0  00000-0 0  9993
2 58788  85.0000 336.0000 0000000   0.0000  66.0000 14.42576027    14
CTC1_L_00101029-03
1 58789U 24988EX  26037.47802083  .00000000  00000+0  00000-0 0  9997
2 58789  85.0000 336.0000 0000000   0.0000 156.0000 14.42576027    15
CTC1_L_00101029-04
1 58790U 24031QX  26037.47802083  .00000000  00000+0  00000-0 0  9998
2 58790  85.0000 336.0000 0000000   0.0000 246.0000 14.42576027    17
CTC1_L_00101030-01
1 58791U 23453WB  26037.47802083  .00000000  00000+0  00000-0 0  9996
2 58791  85.0000 348.0000 0000000   0.0000 348.0000 14.42576027    14
CTC1_L_00101030-02
1 58792U 25195SG  26037.47802083  .00000000  00000+0  00000-0 0  9992
2 58792  85.0000 348.0000 0000000   0.0000  78.0000 14.42576027    15
CTC1_L_00101030-03
1 58793U 25747JC  26037.47802083  .00000000  00000+0  00000-0 0  9996
2 58793  85.0000 348.0000 0000000   0.0000 168.0000 14.42576027    16
CTC1_L_00101030-04
1 58794U 25650IQ  26037.47802083  .00000000  00000+0  00000-0 0  9990
2 58794  85.0000 348.0000 0000000   0.0000 258.0000 14.42576027    17
